ONEWEB-0364             
1 49290U 21090M   25265.25074297 -.00000005  00000+0 -44173-4 0  9991
2 49290  87.9256 327.8879 0001902  92.9644 267.1707 13.20770946196075
ONEWEB-0365             
1 49291U 21090N   25265.25015367 -.00000003  00000+0 -40503-4 0  9996
2 49291  87.9288 358.2304 0001694 101.5819 258.5504 13.19725627191080
ONEWEB-0366             
1 49292U 21090P   25265.27293185  .00000119  00000+0  28554-3 0  9992
2 49292  87.9081 343.0718 0001864  98.4914 261.6428 13.14504086192363
ONEWEB-0367             
1 49293U 21090Q   25265.21127967  .00000195  00000+0  44867-3 0  9990
2 49293  87.9263 327.8653 0001618 108.0790 252.0520 13.20768989194451
ONEWEB-0368             
1 49294U 21090R   25265.18445561  .00000073  00000+0  14755-3 0  9998
2 49294  87.9256 327.9062 0001442  73.7406 286.3886 13.20770331195603
ONEWEB-0369             
1 49295U 21090S   25265.24542272  .00000058  00000+0  11234-3 0  9995
2 49295  87.9293 358.2632 0001710 100.8150 259.3176 13.19725832191074
ONEWEB-0370             
1 49296U 21090T   25265.22075645  .00000079  00000+0  16249-3 0  9993
2 49296  87.9261 327.8716 0002105 106.3295 253.8070 13.20770235194495
ONEWEB-0371             
1 49297U 21090U   25265.25331297  .00000062  00000+0  12197-3 0  9995
2 49297  87.9284 358.2501 0001752 103.6321 256.5007 13.19726201191116
ONEWEB-0372             
1 49298U 21090V   25265.20957484  .00000081  00000+0  16642-3 0  9993
2 49298  87.9256 327.8763 0001787  98.4132 261.7204 13.20772210194468
ONEWEB-0373             
1 49299U 21090W   25265.16078313  .00000001  00000+0 -28666-4 0  9997
2 49299  87.9257 327.8998 0001968  96.8540 263.2818 13.20771277195647
ONEWEB-0374             
1 49300U 21090X   25265.26025431 -.00000081  00000+0 -25321-3 0  9997
2 49300  87.9075 343.0504 0001903  82.4469 277.6877 13.14501939192360
ONEWEB-0375             
1 49301U 21090Y   25265.22391412  .00000005  00000+0 -19686-4 0  9992
2 49301  87.9259 327.8670 0002301  86.2594 273.8803 13.20770777195155
ONEWEB-0376             
1 49302U 21090Z   25265.25173501  .00000021  00000+0  20259-4 0  9998
2 49302  87.9290 358.2329 0001573 103.3994 256.7315 13.19723859191112
ONEWEB-0377             
1 49303U 21090AA  25265.20985464  .00000074  00000+0  15044-3 0  9996
2 49303  87.9267 327.8650 0002128 100.6030 259.5343 13.20772423195146
ONEWEB-0378             
1 49304U 21090AB  25265.23191328  .00000010  00000+0 -69834-5 0  9997
2 49304  87.9274 327.8739 0001956  94.3134 265.8222 13.20768878194419
ONEWEB-0379             
1 49305U 21090AC  25265.25547453 -.00000154  00000+0 -45097-3 0  9997
2 49305  87.9079 343.0588 0001741  97.2980 262.8348 13.14505072192364
ONEWEB-0380             
1 49306U 21090AD  25265.24857765  .00000051  00000+0  95904-4 0  9994
2 49306  87.9285 358.2606 0002022  98.9553 261.1808 13.19726071191080
