[{"OBJECT_NAME":"ONEWEB-0364","OBJECT_ID":"2021-090M","EPOCH":"2025-09-22T06:01:04.192608","MEAN_MOTION":13.20770946,"ECCENTRICITY":0.00019027,"INCLINATION":87.9256,"RA_OF_ASC_NODE":327.8879,"ARG_OF_PERICENTER":92.9644,"MEAN_ANOMALY":267.1707,"EPHEMERIS_TYPE":0,"CLASSIFICATION_TYPE":"U","NORAD_CAT_ID":49290,"ELEMENT_SET_NO":999,"REV_AT_EPOCH":19607,"BSTAR":-4.4172751e-5,"MEAN_MOTION_DOT":-5.0e-8,"MEAN_MOTION_DDOT":0},{"OBJECT_NAME":"ONEWEB-0365","OBJECT_ID":"2021-090N","EPOCH":"2025-09-22T06:00:13.277088","MEAN_MOTION":13.19725627,"ECCENTRICITY":0.00016943,"INCLINATION":87.9288,"RA_OF_ASC_NODE":358.2304,"ARG_OF_PERICENTER":101.5819,"MEAN_ANOMALY":258.5504,"EPHEMERIS_TYPE":0,"CLASSIFICATION_TYPE":"U","NORAD_CAT_ID":49291,"ELEMENT_SET_NO":999,"REV_AT_EPOCH":19108,"BSTAR":-4.05032e-5,"MEAN_MOTION_DOT":-3.0e-8,"MEAN_MOTION_DDOT":0},{"OBJECT_NAME":"ONEWEB-0366","OBJECT_ID":"2021-090P","EPOCH":"2025-09-22T06:33:01.311840","MEAN_MOTION":13.14504086,"ECCENTRICITY":0.00018643,"INCLINATION":87.9081,"RA_OF_ASC_NODE":343.0718,"ARG_OF_PERICENTER":98.4914,"MEAN_ANOMALY":261.6428,"EPHEMERIS_TYPE":0,"CLASSIFICATION_TYPE":"U","NORAD_CAT_ID":49292,"ELEMENT_SET_NO":999,"REV_AT_EPOCH":19236,"BSTAR":0.00028553588,"MEAN_MOTION_DOT":1.19e-6,"MEAN_MOTION_DDOT":0},{"OBJECT_NAME":"ONEWEB-0367","OBJECT_ID":"2021-090Q","EPOCH":"2025-09-22T05:04:14.563488","MEAN_MOTION":13.20768989,"ECCENTRICITY":0.00016185,"INCLINATION":87.9263,"RA_OF_ASC_NODE":327.8653,"ARG_OF_PERICENTER":108.079,"MEAN_ANOMALY":252.052,"EPHEMERIS_TYPE":0,"CLASSIFICATION_TYPE":"U","NORAD_CAT_ID":49293,"ELEMENT_SET_NO":999,"REV_AT_EPOCH":19445,"BSTAR":0.00044867261,"MEAN_MOTION_DOT":1.95e-6,"MEAN_MOTION_DDOT":0},{"OBJECT_NAME":"ONEWEB-0368","OBJECT_ID":"2021-090R","EPOCH":"2025-09-22T04:25:36.964704","MEAN_MOTION":13.20770331,"ECCENTRICITY":0.00014427,"INCLINATION":87.9256,"RA_OF_ASC_NODE":327.9062,"ARG_OF_PERICENTER":73.7406,"MEAN_ANOMALY":286.3886,"EPHEMERIS_TYPE":0,"CLASSIFICATION_TYPE":"U","NORAD_CAT_ID":49294,"ELEMENT_SET_NO":999,"REV_AT_EPOCH":19560,"BSTAR":0.00014754598,"MEAN_MOTION_DOT":7.3e-7,"MEAN_MOTION_DDOT":0},{"OBJECT_NAME":"ONEWEB-0369","OBJECT_ID":"2021-090S","EPOCH":"2025-09-22T05:53:24.523008","MEAN_MOTION":13.19725832,"ECCENTRICITY":0.000171,"INCLINATION":87.9293,"RA_OF_ASC_NODE":358.2632,"ARG_OF_PERICENTER":100.815,"MEAN_ANOMALY":259.3176,"EPHEMERIS_TYPE":0,"CLASSIFICATION_TYPE":"U","NORAD_CAT_ID":49295,"ELEMENT_SET_NO":999,"REV_AT_EPOCH":19107,"BSTAR":0.00011233585,"MEAN_MOTION_DOT":5.8e-7,"MEAN_MOTION_DDOT":0},{"OBJECT_NAME":"ONEWEB-0370","OBJECT_ID":"2021-090T","EPOCH":"2025-09-22T05:17:53.357280","MEAN_MOTION":13.20770235,"ECCENTRICITY":0.00021059,"INCLINATION":87.9261,"RA_OF_ASC_NODE":327.8716,"ARG_OF_PERICENTER":106.3295,"MEAN_ANOMALY":253.807,"EPHEMERIS_TYPE":0,"CLASSIFICATION_TYPE":"U","NORAD_CAT_ID":49296,"ELEMENT_SET_NO":999,"REV_AT_EPOCH":19449,"BSTAR":0.00016249119,"MEAN_MOTION_DOT":7.9e-7,"MEAN_MOTION_DDOT":0},{"OBJECT_NAME":"ONEWEB-0371","OBJECT_ID":"2021-090U","EPOCH":"2025-09-22T06:04:46.240608","MEAN_MOTION":13.19726201,"ECCENTRICITY":0.0001752,"INCLINATION":87.9284,"RA_OF_ASC_NODE":358.2501,"ARG_OF_PERICENTER":103.6321,"MEAN_ANOMALY":256.5007,"EPHEMERIS_TYPE":0,"CLASSIFICATION_TYPE":"U","NORAD_CAT_ID":49297,"ELEMENT_SET_NO":999,"REV_AT_EPOCH":19111,"BSTAR":0.00012196895,"MEAN_MOTION_DOT":6.2e-7,"MEAN_MOTION_DDOT":0},{"OBJECT_NAME":"ONEWEB-0372","OBJECT_ID":"2021-090V","EPOCH":"2025-09-22T05:01:47.266176","MEAN_MOTION":13.2077221,"ECCENTRICITY":0.00017871,"INCLINATION":87.9256,"RA_OF_ASC_NODE":327.8763,"ARG_OF_PERICENTER":98.4132,"MEAN_ANOMALY":261.7204,"EPHEMERIS_TYPE":0,"CLASSIFICATION_TYPE":"U","NORAD_CAT_ID":49298,"ELEMENT_SET_NO":999,"REV_AT_EPOCH":19446,"BSTAR":0.00016641689,"MEAN_MOTION_DOT":8.1e-7,"MEAN_MOTION_DDOT":0},{"OBJECT_NAME":"ONEWEB-0373","OBJECT_ID":"2021-090W","EPOCH":"2025-09-22T03:51:31.662432","MEAN_MOTION":13.20771277,"ECCENTRICITY":0.00019681,"INCLINATION":87.9257,"RA_OF_ASC_NODE":327.8998,"ARG_OF_PERICENTER":96.854,"MEAN_ANOMALY":263.2818,"EPHEMERIS_TYPE":0,"CLASSIFICATION_TYPE":"U","NORAD_CAT_ID":49299,"ELEMENT_SET_NO":999,"REV_AT_EPOCH":19564,"BSTAR":-2.8666479e-5,"MEAN_MOTION_DOT":1.0e-8,"MEAN_MOTION_DDOT":0},{"OBJECT_NAME":"ONEWEB-0374","OBJECT_ID":"2021-090X","EPOCH":"2025-09-22T06:14:45.972384","MEAN_MOTION":13.14501939,"ECCENTRICITY":0.00019032,"INCLINATION":87.9075,"RA_OF_ASC_NODE":343.0504,"ARG_OF_PERICENTER":82.4469,"MEAN_ANOMALY":277.6877,"EPHEMERIS_TYPE":0,"CLASSIFICATION_TYPE":"U","NORAD_CAT_ID":49300,"ELEMENT_SET_NO":999,"REV_AT_EPOCH":19236,"BSTAR":-0.0002532146,"MEAN_MOTION_DOT":-8.1e-7,"MEAN_MOTION_DDOT":0},{"OBJECT_NAME":"ONEWEB-0375","OBJECT_ID":"2021-090Y","EPOCH":"2025-09-22T05:22:26.179968","MEAN_MOTION":13.20770777,"ECCENTRICITY":0.0002301,"INCLINATION":87.9259,"RA_OF_ASC_NODE":327.867,"ARG_OF_PERICENTER":86.2594,"MEAN_ANOMALY":273.8803,"EPHEMERIS_TYPE":0,"CLASSIFICATION_TYPE":"U","NORAD_CAT_ID":49301,"ELEMENT_SET_NO":999,"REV_AT_EPOCH":19515,"BSTAR":-1.9686123e-5,"MEAN_MOTION_DOT":5.0e-8,"MEAN_MOTION_DDOT":0},{"OBJECT_NAME":"ONEWEB-0376","OBJECT_ID":"2021-090Z","EPOCH":"2025-09-22T06:02:29.904864","MEAN_MOTION":13.19723859,"ECCENTRICITY":0.00015732,"INCLINATION":87.929,"RA_OF_ASC_NODE":358.2329,"ARG_OF_PERICENTER":103.3994,"MEAN_ANOMALY":256.7315,"EPHEMERIS_TYPE":0,"CLASSIFICATION_TYPE":"U","NORAD_CAT_ID":49302,"ELEMENT_SET_NO":999,"REV_AT_EPOCH":19111,"BSTAR":2.025942e-5,"MEAN_MOTION_DOT":2.1e-7,"MEAN_MOTION_DDOT":0},{"OBJECT_NAME":"ONEWEB-0377","OBJECT_ID":"2021-090AA","EPOCH":"2025-09-22T05:02:11.440896","MEAN_MOTION":13.20772423,"ECCENTRICITY":0.00021283,"INCLINATION":87.9267,"RA_OF_ASC_NODE":327.865,"ARG_OF_PERICENTER":100.603,"MEAN_ANOMALY":259.5343,"EPHEMERIS_TYPE":0,"CLASSIFICATION_TYPE":"U","NORAD_CAT_ID":49303,"ELEMENT_SET_NO":999,"REV_AT_EPOCH":19514,"BSTAR":0.00015044086,"MEAN_MOTION_DOT":7.4e-7,"MEAN_MOTION_DDOT":0},{"OBJECT_NAME":"ONEWEB-0378","OBJECT_ID":"2021-090AB","EPOCH":"2025-09-22T05:33:57.307392","MEAN_MOTION":13.20768878,"ECCENTRICITY":0.00019562,"INCLINATION":87.9274,"RA_OF_ASC_NODE":327.8739,"ARG_OF_PERICENTER":94.3134,"MEAN_ANOMALY":265.8222,"EPHEMERIS_TYPE":0,"CLASSIFICATION_TYPE":"U","NORAD_CAT_ID":49304,"ELEMENT_SET_NO":999,"REV_AT_EPOCH":19441,"BSTAR":-6.983407e-6,"MEAN_MOTION_DOT":1.0e-7,"MEAN_MOTION_DDOT":0},{"OBJECT_NAME":"ONEWEB-0379","OBJECT_ID":"2021-090AC","EPOCH":"2025-09-22T06:07:52.999392","MEAN_MOTION":13.14505072,"ECCENTRICITY":0.0001741,"INCLINATION":87.9079,"RA_OF_ASC_NODE":343.0588,"ARG_OF_PERICENTER":97.298,"MEAN_ANOMALY":262.8348,"EPHEMERIS_TYPE":0,"CLASSIFICATION_TYPE":"U","NORAD_CAT_ID":49305,"ELEMENT_SET_NO":999,"REV_AT_EPOCH":19236,"BSTAR":-0.00045097046,"MEAN_MOTION_DOT":-1.54e-6,"MEAN_MOTION_DDOT":0},{"OBJECT_NAME":"ONEWEB-0380","OBJECT_ID":"2021-090AD","EPOCH":"2025-09-22T05:57:57.108960","MEAN_MOTION":13.19726071,"ECCENTRICITY":0.00020225,"INCLINATION":87.9285,"RA_OF_ASC_NODE":358.2606,"ARG_OF_PERICENTER":98.9553,"MEAN_ANOMALY":261.1808,"EPHEMERIS_TYPE":0,"CLASSIFICATION_TYPE":"U","NORAD_CAT_ID":49306,"ELEMENT_SET_NO":999,"REV_AT_EPOCH":19108,"BSTAR":9.5904086e-5,"MEAN_MOTION_DOT":5.1e-7,"MEAN_MOTION_DDOT":0}]
